[{"OBJECT_NAME":"STARLINK-37037","OBJECT_ID":"2026-042R","EPOCH":"2026-03-14T20:00:01.999872","MEAN_MOTION":15.88551999,"ECCENTRICITY":0.00011803,"INCLINATION":53.159,"RA_OF_ASC_NODE":168.9361,"ARG_OF_PERICENTER":60.2153,"MEAN_ANOMALY":64.7711,"EPHEMERIS_TYPE":0,"CLASSIFICATION_TYPE":"U","NORAD_CAT_ID":68084,"ELEMENT_SET_NO":999,"REV_AT_EPOCH":287,"BSTAR":-0.0060062024,"MEAN_MOTION_DOT":-0.01485617,"MEAN_MOTION_DDOT":0},{"OBJECT_NAME":"STARLINK-37068","OBJECT_ID":"2026-042S","EPOCH":"2026-03-14T20:00:01.999872","MEAN_MOTION":15.88686864,"ECCENTRICITY":0.00010679,"INCLINATION":53.1591,"RA_OF_ASC_NODE":168.93,"ARG_OF_PERICENTER":54.3233,"MEAN_ANOMALY":73.6355,"EPHEMERIS_TYPE":0,"CLASSIFICATION_TYPE":"U","NORAD_CAT_ID":68085,"ELEMENT_SET_NO":999,"REV_AT_EPOCH":287,"BSTAR":-0.0058754386,"MEAN_MOTION_DOT":-0.01466225,"MEAN_MOTION_DDOT":0},{"OBJECT_NAME":"STARLINK-37067","OBJECT_ID":"2026-042T","EPOCH":"2026-03-14T20:00:01.999872","MEAN_MOTION":15.88770117,"ECCENTRICITY":0.00010662,"INCLINATION":53.1594,"RA_OF_ASC_NODE":168.9224,"ARG_OF_PERICENTER":54.1898,"MEAN_ANOMALY":77.456,"EPHEMERIS_TYPE":0,"CLASSIFICATION_TYPE":"U","NORAD_CAT_ID":68086,"ELEMENT_SET_NO":999,"REV_AT_EPOCH":287,"BSTAR":-0.0058568081,"MEAN_MOTION_DOT":-0.0146756,"MEAN_MOTION_DDOT":0},{"OBJECT_NAME":"STARLINK-37062","OBJECT_ID":"2026-042U","EPOCH":"2026-03-14T20:00:01.999872","MEAN_MOTION":15.88875994,"ECCENTRICITY":0.00010052,"INCLINATION":53.1594,"RA_OF_ASC_NODE":168.9153,"ARG_OF_PERICENTER":52.5506,"MEAN_ANOMALY":82.4809,"EPHEMERIS_TYPE":0,"CLASSIFICATION_TYPE":"U","NORAD_CAT_ID":68087,"ELEMENT_SET_NO":999,"REV_AT_EPOCH":287,"BSTAR":-0.0058142729,"MEAN_MOTION_DOT":-0.01465101,"MEAN_MOTION_DDOT":0},{"OBJECT_NAME":"STARLINK-37059","OBJECT_ID":"2026-042V","EPOCH":"2026-03-14T20:00:01.999872","MEAN_MOTION":15.88969778,"ECCENTRICITY":0.00010815,"INCLINATION":53.1593,"RA_OF_ASC_NODE":168.908,"ARG_OF_PERICENTER":52.7933,"MEAN_ANOMALY":85.8199,"EPHEMERIS_TYPE":0,"CLASSIFICATION_TYPE":"U","NORAD_CAT_ID":68088,"ELEMENT_SET_NO":999,"REV_AT_EPOCH":287,"BSTAR":-0.0057724802,"MEAN_MOTION_DOT":-0.01462084,"MEAN_MOTION_DDOT":0},{"OBJECT_NAME":"STARLINK-37004","OBJECT_ID":"2026-042W","EPOCH":"2026-03-14T20:00:01.999872","MEAN_MOTION":15.89080897,"ECCENTRICITY":0.00010476,"INCLINATION":53.1595,"RA_OF_ASC_NODE":168.9015,"ARG_OF_PERICENTER":57.9436,"MEAN_ANOMALY":83.996,"EPHEMERIS_TYPE":0,"CLASSIFICATION_TYPE":"U","NORAD_CAT_ID":68089,"ELEMENT_SET_NO":999,"REV_AT_EPOCH":287,"BSTAR":-0.0057356808,"MEAN_MOTION_DOT":-0.01461134,"MEAN_MOTION_DDOT":0},{"OBJECT_NAME":"STARLINK-36320","OBJECT_ID":"2026-042X","EPOCH":"2026-03-14T20:00:01.999872","MEAN_MOTION":15.89280067,"ECCENTRICITY":0.00012472,"INCLINATION":53.1595,"RA_OF_ASC_NODE":168.8863,"ARG_OF_PERICENTER":58.568,"MEAN_ANOMALY":90.5964,"EPHEMERIS_TYPE":0,"CLASSIFICATION_TYPE":"U","NORAD_CAT_ID":68090,"ELEMENT_SET_NO":999,"REV_AT_EPOCH":286,"BSTAR":-0.0058146353,"MEAN_MOTION_DOT":-0.01491676,"MEAN_MOTION_DDOT":0},{"OBJECT_NAME":"STARLINK-36324","OBJECT_ID":"2026-042Y","EPOCH":"2026-03-14T20:00:01.999872","MEAN_MOTION":15.89172185,"ECCENTRICITY":0.00010855,"INCLINATION":53.1592,"RA_OF_ASC_NODE":168.8931,"ARG_OF_PERICENTER":56.7074,"MEAN_ANOMALY":88.9895,"EPHEMERIS_TYPE":0,"CLASSIFICATION_TYPE":"U","NORAD_CAT_ID":68091,"ELEMENT_SET_NO":999,"REV_AT_EPOCH":286,"BSTAR":-0.0057989144,"MEAN_MOTION_DOT":-0.01481007,"MEAN_MOTION_DDOT":0},{"OBJECT_NAME":"STARLINK-36896","OBJECT_ID":"2026-042Z","EPOCH":"2026-03-14T20:00:01.999872","MEAN_MOTION":15.89385139,"ECCENTRICITY":0.00012704,"INCLINATION":53.1593,"RA_OF_ASC_NODE":168.8791,"ARG_OF_PERICENTER":59.6385,"MEAN_ANOMALY":92.8361,"EPHEMERIS_TYPE":0,"CLASSIFICATION_TYPE":"U","NORAD_CAT_ID":68092,"ELEMENT_SET_NO":999,"REV_AT_EPOCH":287,"BSTAR":-0.0057499819,"MEAN_MOTION_DOT":-0.01484261,"MEAN_MOTION_DDOT":0},{"OBJECT_NAME":"STARLINK-36251","OBJECT_ID":"2026-042AA","EPOCH":"2026-03-14T20:00:01.999872","MEAN_MOTION":15.89605188,"ECCENTRICITY":0.00012116,"INCLINATION":53.1591,"RA_OF_ASC_NODE":168.8651,"ARG_OF_PERICENTER":61.6291,"MEAN_ANOMALY":97.6371,"EPHEMERIS_TYPE":0,"CLASSIFICATION_TYPE":"U","NORAD_CAT_ID":68093,"ELEMENT_SET_NO":999,"REV_AT_EPOCH":286,"BSTAR":-0.0057433016,"MEAN_MOTION_DOT":-0.01497202,"MEAN_MOTION_DDOT":0},{"OBJECT_NAME":"STARLINK-36787","OBJECT_ID":"2026-042AB","EPOCH":"2026-03-14T20:00:01.999872","MEAN_MOTION":15.89653271,"ECCENTRICITY":9.569e-5,"INCLINATION":53.1588,"RA_OF_ASC_NODE":168.8457,"ARG_OF_PERICENTER":64.8048,"MEAN_ANOMALY":103.5383,"EPHEMERIS_TYPE":0,"CLASSIFICATION_TYPE":"U","NORAD_CAT_ID":68094,"ELEMENT_SET_NO":999,"REV_AT_EPOCH":286,"BSTAR":-0.0057742132,"MEAN_MOTION_DOT":-0.01507094,"MEAN_MOTION_DDOT":0},{"OBJECT_NAME":"STARLINK-36790","OBJECT_ID":"2026-042AC","EPOCH":"2026-03-14T20:00:01.999872","MEAN_MOTION":15.89497687,"ECCENTRICITY":9.272e-5,"INCLINATION":53.1592,"RA_OF_ASC_NODE":168.8723,"ARG_OF_PERICENTER":63.3138,"MEAN_ANOMALY":92.4314,"EPHEMERIS_TYPE":0,"CLASSIFICATION_TYPE":"U","NORAD_CAT_ID":68095,"ELEMENT_SET_NO":999,"REV_AT_EPOCH":286,"BSTAR":-0.0056983218,"MEAN_MOTION_DOT":-0.014798,"MEAN_MOTION_DDOT":0},{"OBJECT_NAME":"STARLINK-36328","OBJECT_ID":"2026-042AD","EPOCH":"2026-03-14T20:00:01.999872","MEAN_MOTION":15.89741358,"ECCENTRICITY":0.00010718,"INCLINATION":53.1593,"RA_OF_ASC_NODE":168.8378,"ARG_OF_PERICENTER":59.0981,"MEAN_ANOMALY":113.031,"EPHEMERIS_TYPE":0,"CLASSIFICATION_TYPE":"U","NORAD_CAT_ID":68096,"ELEMENT_SET_NO":999,"REV_AT_EPOCH":286,"BSTAR":-0.005809935,"MEAN_MOTION_DOT":-0.01521096,"MEAN_MOTION_DDOT":0},{"OBJECT_NAME":"STARLINK-36853","OBJECT_ID":"2026-042AE","EPOCH":"2026-03-14T20:00:01.999872","MEAN_MOTION":15.89550643,"ECCENTRICITY":0.00010799,"INCLINATION":53.1592,"RA_OF_ASC_NODE":168.8531,"ARG_OF_PERICENTER":62.0037,"MEAN_ANOMALY":102.8304,"EPHEMERIS_TYPE":0,"CLASSIFICATION_TYPE":"U","NORAD_CAT_ID":68097,"ELEMENT_SET_NO":999,"REV_AT_EPOCH":287,"BSTAR":-0.0057753928,"MEAN_MOTION_DOT":-0.01500656,"MEAN_MOTION_DDOT":0},{"OBJECT_NAME":"GLOBAL-34","OBJECT_ID":"2026-043A","EPOCH":"2026-03-12T23:54:28.749312","MEAN_MOTION":15.31580793,"ECCENTRICITY":0.00063821,"INCLINATION":42.0214,"RA_OF_ASC_NODE":56.4132,"ARG_OF_PERICENTER":310.0598,"MEAN_ANOMALY":49.9679,"EPHEMERIS_TYPE":0,"CLASSIFICATION_TYPE":"U","NORAD_CAT_ID":68098,"ELEMENT_SET_NO":999,"REV_AT_EPOCH":107,"BSTAR":0.00029276458,"MEAN_MOTION_DOT":8.884e-5,"MEAN_MOTION_DDOT":0},{"OBJECT_NAME":"STARLINK-37022","OBJECT_ID":"2026-044A","EPOCH":"2026-03-14T20:00:01.999872","MEAN_MOTION":16.0018464,"ECCENTRICITY":0.00014007,"INCLINATION":97.2823,"RA_OF_ASC_NODE":34.092,"ARG_OF_PERICENTER":103.7094,"MEAN_ANOMALY":157.512,"EPHEMERIS_TYPE":0,"CLASSIFICATION_TYPE":"U","NORAD_CAT_ID":68101,"ELEMENT_SET_NO":999,"REV_AT_EPOCH":222,"BSTAR":-0.0035640649,"MEAN_MOTION_DOT":-0.01807908,"MEAN_MOTION_DDOT":0.00098604077}]
