STARLINK-37037          
1 68084U 26042R   26073.83335648 -.01485617  00000+0 -60062-2 0  9997
2 68084  53.1590 168.9361 0001180  60.2153  64.7711 15.88551999  2875
STARLINK-37068          
1 68085U 26042S   26073.83335648 -.01466225  00000+0 -58754-2 0  9997
2 68085  53.1591 168.9300 0001067  54.3233  73.6355 15.88686864  2870
STARLINK-37067          
1 68086U 26042T   26073.83335648 -.01467560  00000+0 -58568-2 0  9994
2 68086  53.1594 168.9224 0001066  54.1898  77.4560 15.88770117  2878
STARLINK-37062          
1 68087U 26042U   26073.83335648 -.01465101  00000+0 -58143-2 0  9993
2 68087  53.1594 168.9153 0001005  52.5506  82.4809 15.88875994  2872
STARLINK-37059          
1 68088U 26042V   26073.83335648 -.01462084  00000+0 -57725-2 0  9996
2 68088  53.1593 168.9080 0001081  52.7933  85.8199 15.88969778  2874
STARLINK-37004          
1 68089U 26042W   26073.83335648 -.01461134  00000+0 -57357-2 0  9993
2 68089  53.1595 168.9015 0001047  57.9436  83.9960 15.89080897  2874
STARLINK-36320          
1 68090U 26042X   26073.83335648 -.01491676  00000+0 -58146-2 0  9996
2 68090  53.1595 168.8863 0001247  58.5680  90.5964 15.89280067  2864
STARLINK-36324          
1 68091U 26042Y   26073.83335648 -.01481007  00000+0 -57989-2 0  9998
2 68091  53.1592 168.8931 0001085  56.7074  88.9895 15.89172185  2860
STARLINK-36896          
1 68092U 26042Z   26073.83335648 -.01484261  00000+0 -57500-2 0  9993
2 68092  53.1593 168.8791 0001270  59.6385  92.8361 15.89385139  2877
STARLINK-36251          
1 68093U 26042AA  26073.83335648 -.01497202  00000+0 -57433-2 0  9998
2 68093  53.1591 168.8651 0001211  61.6291  97.6371 15.89605188  2867
STARLINK-36787          
1 68094U 26042AB  26073.83335648 -.01507094  00000+0 -57742-2 0  9993
2 68094  53.1588 168.8457 0000956  64.8048 103.5383 15.89653271  2864
STARLINK-36790          
1 68095U 26042AC  26073.83335648 -.01479800  00000+0 -56983-2 0  9993
2 68095  53.1592 168.8723 0000927  63.3138  92.4314 15.89497687  2865
STARLINK-36328          
1 68096U 26042AD  26073.83335648 -.01521096  00000+0 -58099-2 0  9999
2 68096  53.1593 168.8378 0001071  59.0981 113.0310 15.89741358  2865
STARLINK-36853          
1 68097U 26042AE  26073.83335648 -.01500656  00000+0 -57754-2 0  9996
2 68097  53.1592 168.8531 0001079  62.0037 102.8304 15.89550643  2875
GLOBAL-34               
1 68098U 26043A   26071.99616608  .00008884  00000+0  29276-3 0  9993
2 68098  42.0214  56.4132 0006382 310.0598  49.9679 15.31580793  1076
STARLINK-37022          
1 68101U 26044A   26073.83335648 -.01807908  98604-3 -35641-2 0  9996
2 68101  97.2823  34.0920 0001400 103.7094 157.5120 16.00184640  2223
